SENTINEL-6              
1 46984U 20086A   23182.42147938 -.00000025  00000+0  15588-3 0  9998
2 46984  66.0392 221.8912 0008098 269.3299  90.6788 12.80929928121900
